[{"OBJECT_NAME":"LEMUR-2-PETERG","OBJECT_ID":"2017-042S","EPOCH":"2026-03-09T11:34:35.656032","MEAN_MOTION":15.29611459,"ECCENTRICITY":0.00037,"INCLINATION":97.398,"RA_OF_ASC_NODE":253.6596,"ARG_OF_PERICENTER":341.6938,"MEAN_ANOMALY":18.4169,"EPHEMERIS_TYPE":0,"CLASSIFICATION_TYPE":"U","NORAD_CAT_ID":42841,"ELEMENT_SET_NO":999,"REV_AT_EPOCH":47317,"BSTAR":0.00081076471,"MEAN_MOTION_DOT":0.0002324,"MEAN_MOTION_DDOT":0},{"OBJECT_NAME":"STARLINK-34156","OBJECT_ID":"2025-110N","EPOCH":"2026-03-09T07:13:58.676448","MEAN_MOTION":15.30194747,"ECCENTRICITY":0.00011709,"INCLINATION":53.1605,"RA_OF_ASC_NODE":28.5213,"ARG_OF_PERICENTER":81.6127,"MEAN_ANOMALY":278.5006,"EPHEMERIS_TYPE":0,"CLASSIFICATION_TYPE":"U","NORAD_CAT_ID":64108,"ELEMENT_SET_NO":999,"REV_AT_EPOCH":4582,"BSTAR":0.0012556455,"MEAN_MOTION_DOT":0.00037009,"MEAN_MOTION_DDOT":0}]
