LEMUR-2-PETERG          
1 42841U 17042S   26068.48235713  .00023240  00000+0  81076-3 0  9993
2 42841  97.3980 253.6596 0003700 341.6938  18.4169 15.29611459473171
STARLINK-34156          
1 64108U 25110N   26068.30137357  .00037009  00000+0  12556-2 0  9998
2 64108  53.1605  28.5213 0001170  81.6127 278.5006 15.30194747 45824
